[{"OBJECT_NAME":"ONEWEB-0629","OBJECT_ID":"2023-004AG","EPOCH":"2026-05-06T10:11:20.726880","MEAN_MOTION":13.176482,"ECCENTRICITY":0.0002076,"INCLINATION":87.917,"RA_OF_ASC_NODE":14.1721,"ARG_OF_PERICENTER":85.4618,"MEAN_ANOMALY":274.6751,"EPHEMERIS_TYPE":0,"CLASSIFICATION_TYPE":"U","NORAD_CAT_ID":55170,"ELEMENT_SET_NO":999,"REV_AT_EPOCH":16208,"BSTAR":0.00017316,"MEAN_MOTION_DOT":8e-07,"MEAN_MOTION_DDOT":0.0},{"OBJECT_NAME":"ONEWEB-0631","OBJECT_ID":"2023-004AH","EPOCH":"2026-05-06T07:02:42.078912","MEAN_MOTION":13.18685162,"ECCENTRICITY":0.0001298,"INCLINATION":87.9188,"RA_OF_ASC_NODE":343.7707,"ARG_OF_PERICENTER":89.6858,"MEAN_ANOMALY":270.4423,"EPHEMERIS_TYPE":0,"CLASSIFICATION_TYPE":"U","NORAD_CAT_ID":55171,"ELEMENT_SET_NO":999,"REV_AT_EPOCH":16415,"BSTAR":0.00010677000000000001,"MEAN_MOTION_DOT":5.5e-07,"MEAN_MOTION_DDOT":0.0},{"OBJECT_NAME":"ONEWEB-0709","OBJECT_ID":"2023-004AJ","EPOCH":"2026-05-06T05:47:13.066080","MEAN_MOTION":13.11418409,"ECCENTRICITY":0.0001375,"INCLINATION":87.8921,"RA_OF_ASC_NODE":29.4218,"ARG_OF_PERICENTER":51.1554,"MEAN_ANOMALY":308.9696,"EPHEMERIS_TYPE":0,"CLASSIFICATION_TYPE":"U","NORAD_CAT_ID":55172,"ELEMENT_SET_NO":999,"REV_AT_EPOCH":16037,"BSTAR":0.0007004200000000001,"MEAN_MOTION_DOT":2.61e-06,"MEAN_MOTION_DDOT":0.0},{"OBJECT_NAME":"ONEWEB-0710","OBJECT_ID":"2023-004AK","EPOCH":"2026-05-06T10:32:00.005280","MEAN_MOTION":13.17650154,"ECCENTRICITY":0.0001752,"INCLINATION":87.9171,"RA_OF_ASC_NODE":14.1645,"ARG_OF_PERICENTER":86.5582,"MEAN_ANOMALY":273.575,"EPHEMERIS_TYPE":0,"CLASSIFICATION_TYPE":"U","NORAD_CAT_ID":55173,"ELEMENT_SET_NO":999,"REV_AT_EPOCH":16208,"BSTAR":1.4871000000000002e-05,"MEAN_MOTION_DOT":1.9e-07,"MEAN_MOTION_DDOT":0.0},{"OBJECT_NAME":"ONEWEB-0711","OBJECT_ID":"2023-004AL","EPOCH":"2026-05-06T10:35:17.490624","MEAN_MOTION":13.11415318,"ECCENTRICITY":0.0001823,"INCLINATION":87.8922,"RA_OF_ASC_NODE":29.3683,"ARG_OF_PERICENTER":103.1432,"MEAN_ANOMALY":256.9899,"EPHEMERIS_TYPE":0,"CLASSIFICATION_TYPE":"U","NORAD_CAT_ID":55174,"ELEMENT_SET_NO":999,"REV_AT_EPOCH":16036,"BSTAR":-0.0018875,"MEAN_MOTION_DOT":-6.56e-06,"MEAN_MOTION_DDOT":0.0},{"OBJECT_NAME":"ONEWEB-0713","OBJECT_ID":"2023-004AM","EPOCH":"2026-05-06T11:02:08.871360","MEAN_MOTION":13.11420042,"ECCENTRICITY":0.0001737,"INCLINATION":87.8929,"RA_OF_ASC_NODE":29.3654,"ARG_OF_PERICENTER":92.2096,"MEAN_ANOMALY":267.9231,"EPHEMERIS_TYPE":0,"CLASSIFICATION_TYPE":"U","NORAD_CAT_ID":55175,"ELEMENT_SET_NO":999,"REV_AT_EPOCH":16035,"BSTAR":-0.0008279800000000001,"MEAN_MOTION_DOT":-2.81e-06,"MEAN_MOTION_DDOT":0.0},{"OBJECT_NAME":"ONEWEB-0715","OBJECT_ID":"2023-004AN","EPOCH":"2026-05-06T10:54:49.242240","MEAN_MOTION":13.11418798,"ECCENTRICITY":0.0001155,"INCLINATION":87.8932,"RA_OF_ASC_NODE":29.3665,"ARG_OF_PERICENTER":68.1693,"MEAN_ANOMALY":291.9558,"EPHEMERIS_TYPE":0,"CLASSIFICATION_TYPE":"U","NORAD_CAT_ID":55176,"ELEMENT_SET_NO":999,"REV_AT_EPOCH":16039,"BSTAR":-0.0013156,"MEAN_MOTION_DOT":-4.54e-06,"MEAN_MOTION_DDOT":0.0},{"OBJECT_NAME":"ONEWEB-0716","OBJECT_ID":"2023-004AP","EPOCH":"2026-05-06T10:22:16.800960","MEAN_MOTION":13.17649422,"ECCENTRICITY":0.0002,"INCLINATION":87.9174,"RA_OF_ASC_NODE":14.1675,"ARG_OF_PERICENTER":76.6912,"MEAN_ANOMALY":283.4443,"EPHEMERIS_TYPE":0,"CLASSIFICATION_TYPE":"U","NORAD_CAT_ID":55177,"ELEMENT_SET_NO":999,"REV_AT_EPOCH":16208,"BSTAR":-6.635600000000001e-05,"MEAN_MOTION_DOT":-1.3e-07,"MEAN_MOTION_DDOT":0.0},{"OBJECT_NAME":"ONEWEB-0717","OBJECT_ID":"2023-004AQ","EPOCH":"2026-05-06T09:57:59.020416","MEAN_MOTION":13.17649549,"ECCENTRICITY":0.0001653,"INCLINATION":87.9181,"RA_OF_ASC_NODE":14.155,"ARG_OF_PERICENTER":103.6931,"MEAN_ANOMALY":256.4385,"EPHEMERIS_TYPE":0,"CLASSIFICATION_TYPE":"U","NORAD_CAT_ID":55178,"ELEMENT_SET_NO":999,"REV_AT_EPOCH":16213,"BSTAR":3.0538e-05,"MEAN_MOTION_DOT":2.5e-07,"MEAN_MOTION_DDOT":0.0},{"OBJECT_NAME":"ONEWEB-0719","OBJECT_ID":"2023-004AR","EPOCH":"2026-05-06T10:12:33.594912","MEAN_MOTION":13.17649633,"ECCENTRICITY":0.0001999,"INCLINATION":87.9178,"RA_OF_ASC_NODE":14.1339,"ARG_OF_PERICENTER":81.2455,"MEAN_ANOMALY":278.8903,"EPHEMERIS_TYPE":0,"CLASSIFICATION_TYPE":"U","NORAD_CAT_ID":55179,"ELEMENT_SET_NO":999,"REV_AT_EPOCH":16208,"BSTAR":2.4034e-05,"MEAN_MOTION_DOT":2.2e-07,"MEAN_MOTION_DDOT":0.0},{"OBJECT_NAME":"ONEWEB-0530","OBJECT_ID":"2023-029A","EPOCH":"2026-05-06T08:21:45.544320","MEAN_MOTION":13.20773934,"ECCENTRICITY":0.0002084,"INCLINATION":87.9142,"RA_OF_ASC_NODE":282.8201,"ARG_OF_PERICENTER":108.8424,"MEAN_ANOMALY":251.2935,"EPHEMERIS_TYPE":0,"CLASSIFICATION_TYPE":"U","NORAD_CAT_ID":55796,"ELEMENT_SET_NO":999,"REV_AT_EPOCH":15562,"BSTAR":-8.5185e-05,"MEAN_MOTION_DOT":-2.2e-07,"MEAN_MOTION_DDOT":0.0},{"OBJECT_NAME":"ONEWEB-0534","OBJECT_ID":"2023-029B","EPOCH":"2026-05-06T09:52:41.282688","MEAN_MOTION":13.20770344,"ECCENTRICITY":0.0001899,"INCLINATION":87.9145,"RA_OF_ASC_NODE":282.8068,"ARG_OF_PERICENTER":93.4717,"MEAN_ANOMALY":266.6634,"EPHEMERIS_TYPE":0,"CLASSIFICATION_TYPE":"U","NORAD_CAT_ID":55797,"ELEMENT_SET_NO":999,"REV_AT_EPOCH":15563,"BSTAR":-1.5304e-05,"MEAN_MOTION_DOT":7e-08,"MEAN_MOTION_DDOT":0.0},{"OBJECT_NAME":"ONEWEB-0556","OBJECT_ID":"2023-029C","EPOCH":"2026-05-06T08:12:42.552288","MEAN_MOTION":13.20772066,"ECCENTRICITY":0.0002657,"INCLINATION":87.9142,"RA_OF_ASC_NODE":282.8213,"ARG_OF_PERICENTER":92.9191,"MEAN_ANOMALY":267.2247,"EPHEMERIS_TYPE":0,"CLASSIFICATION_TYPE":"U","NORAD_CAT_ID":55798,"ELEMENT_SET_NO":999,"REV_AT_EPOCH":15562,"BSTAR":-4.9156e-05,"MEAN_MOTION_DOT":-7e-08,"MEAN_MOTION_DDOT":0.0},{"OBJECT_NAME":"ONEWEB-0562","OBJECT_ID":"2023-029D","EPOCH":"2026-05-06T07:54:30.385440","MEAN_MOTION":13.20770716,"ECCENTRICITY":0.000258,"INCLINATION":87.9144,"RA_OF_ASC_NODE":282.8045,"ARG_OF_PERICENTER":108.4621,"MEAN_ANOMALY":251.6793,"EPHEMERIS_TYPE":0,"CLASSIFICATION_TYPE":"U","NORAD_CAT_ID":55799,"ELEMENT_SET_NO":999,"REV_AT_EPOCH":15562,"BSTAR":-5.225700000000001e-06,"MEAN_MOTION_DOT":1.1e-07,"MEAN_MOTION_DDOT":0.0},{"OBJECT_NAME":"ONEWEB-0563","OBJECT_ID":"2023-029E","EPOCH":"2026-05-05T20:50:52.579968","MEAN_MOTION":13.20773135,"ECCENTRICITY":0.0001933,"INCLINATION":87.9141,"RA_OF_ASC_NODE":282.9268,"ARG_OF_PERICENTER":90.407,"MEAN_ANOMALY":269.7285,"EPHEMERIS_TYPE":0,"CLASSIFICATION_TYPE":"U","NORAD_CAT_ID":55800,"ELEMENT_SET_NO":999,"REV_AT_EPOCH":15555,"BSTAR":2.13e-05,"MEAN_MOTION_DOT":2.2e-07,"MEAN_MOTION_DDOT":0.0},{"OBJECT_NAME":"ONEWEB-0564","OBJECT_ID":"2023-029F","EPOCH":"2026-05-06T09:25:25.325472","MEAN_MOTION":13.20763188,"ECCENTRICITY":0.0002046,"INCLINATION":87.9145,"RA_OF_ASC_NODE":282.7951,"ARG_OF_PERICENTER":105.2791,"MEAN_ANOMALY":254.8569,"EPHEMERIS_TYPE":0,"CLASSIFICATION_TYPE":"U","NORAD_CAT_ID":55801,"ELEMENT_SET_NO":999,"REV_AT_EPOCH":15563,"BSTAR":-0.0018013999999999999,"MEAN_MOTION_DOT":-7.19e-06,"MEAN_MOTION_DDOT":0.0},{"OBJECT_NAME":"ONEWEB-0638","OBJECT_ID":"2023-029G","EPOCH":"2026-05-06T10:51:07.584768","MEAN_MOTION":13.14503804,"ECCENTRICITY":0.0002358,"INCLINATION":87.8918,"RA_OF_ASC_NODE":298.0836,"ARG_OF_PERICENTER":94.8525,"MEAN_ANOMALY":265.2874,"EPHEMERIS_TYPE":0,"CLASSIFICATION_TYPE":"U","NORAD_CAT_ID":55802,"ELEMENT_SET_NO":999,"REV_AT_EPOCH":15391,"BSTAR":0.00031002000000000004,"MEAN_MOTION_DOT":1.28e-06,"MEAN_MOTION_DDOT":0.0},{"OBJECT_NAME":"ONEWEB-0639","OBJECT_ID":"2023-029H","EPOCH":"2026-05-06T11:37:25.504608","MEAN_MOTION":13.1972456,"ECCENTRICITY":0.0001937,"INCLINATION":87.9146,"RA_OF_ASC_NODE":313.2932,"ARG_OF_PERICENTER":59.3664,"MEAN_ANOMALY":300.766,"EPHEMERIS_TYPE":0,"CLASSIFICATION_TYPE":"U","NORAD_CAT_ID":55803,"ELEMENT_SET_NO":999,"REV_AT_EPOCH":15340,"BSTAR":-2.0997e-05,"MEAN_MOTION_DOT":5e-08,"MEAN_MOTION_DDOT":0.0},{"OBJECT_NAME":"ONEWEB-0640","OBJECT_ID":"2023-029J","EPOCH":"2026-05-06T14:44:03.037920","MEAN_MOTION":13.14503313,"ECCENTRICITY":0.0002454,"INCLINATION":87.8918,"RA_OF_ASC_NODE":298.0421,"ARG_OF_PERICENTER":86.6611,"MEAN_ANOMALY":273.48,"EPHEMERIS_TYPE":0,"CLASSIFICATION_TYPE":"U","NORAD_CAT_ID":55804,"ELEMENT_SET_NO":999,"REV_AT_EPOCH":15395,"BSTAR":0.00058346,"MEAN_MOTION_DOT":2.29e-06,"MEAN_MOTION_DDOT":0.0},{"OBJECT_NAME":"ONEWEB-0641","OBJECT_ID":"2023-029K","EPOCH":"2026-05-06T06:03:03.888576","MEAN_MOTION":13.19724591,"ECCENTRICITY":0.0001735,"INCLINATION":87.9147,"RA_OF_ASC_NODE":313.3264,"ARG_OF_PERICENTER":84.4316,"MEAN_ANOMALY":275.7014,"EPHEMERIS_TYPE":0,"CLASSIFICATION_TYPE":"U","NORAD_CAT_ID":55805,"ELEMENT_SET_NO":999,"REV_AT_EPOCH":15338,"BSTAR":8.457500000000001e-05,"MEAN_MOTION_DOT":4.7e-07,"MEAN_MOTION_DDOT":0.0},{"OBJECT_NAME":"ONEWEB-0642","OBJECT_ID":"2023-029L","EPOCH":"2026-05-06T11:23:45.422592","MEAN_MOTION":13.19724863,"ECCENTRICITY":0.0001654,"INCLINATION":87.9142,"RA_OF_ASC_NODE":313.296,"ARG_OF_PERICENTER":61.7276,"MEAN_ANOMALY":298.4024,"EPHEMERIS_TYPE":0,"CLASSIFICATION_TYPE":"U","NORAD_CAT_ID":55806,"ELEMENT_SET_NO":999,"REV_AT_EPOCH":15340,"BSTAR":0.00017253,"MEAN_MOTION_DOT":8.2e-07,"MEAN_MOTION_DDOT":0.0},{"OBJECT_NAME":"ONEWEB-0643","OBJECT_ID":"2023-029M","EPOCH":"2026-05-06T10:21:26.792640","MEAN_MOTION":13.14503017,"ECCENTRICITY":0.0001329,"INCLINATION":87.8919,"RA_OF_ASC_NODE":298.0654,"ARG_OF_PERICENTER":73.4466,"MEAN_ANOMALY":286.681,"EPHEMERIS_TYPE":0,"CLASSIFICATION_TYPE":"U","NORAD_CAT_ID":55807,"ELEMENT_SET_NO":999,"REV_AT_EPOCH":15390,"BSTAR":-0.00047113,"MEAN_MOTION_DOT":-1.62e-06,"MEAN_MOTION_DDOT":0.0},{"OBJECT_NAME":"ONEWEB-0644","OBJECT_ID":"2023-029N","EPOCH":"2026-05-06T05:49:24.610080","MEAN_MOTION":13.19725288,"ECCENTRICITY":0.0001663,"INCLINATION":87.914,"RA_OF_ASC_NODE":313.3444,"ARG_OF_PERICENTER":78.2014,"MEAN_ANOMALY":281.9305,"EPHEMERIS_TYPE":0,"CLASSIFICATION_TYPE":"U","NORAD_CAT_ID":55808,"ELEMENT_SET_NO":999,"REV_AT_EPOCH":15337,"BSTAR":8.5534e-05,"MEAN_MOTION_DOT":4.7e-07,"MEAN_MOTION_DDOT":0.0}]